[{"spaceTrack":{"CCSDS_OMM_VERS":"2.0","COMMENT":"GENERATED VIA SPACE-TRACK.ORG API","CREATION_DATE":"2021-10-26T14:16:11","ORIGINATOR":"18 SPCS","OBJECT_NAME":"STARLINK-1615","OBJECT_ID":"2020-057BB","CENTER_NAME":"EARTH","REF_FRAME":"TEME","TIME_SYSTEM":"UTC","MEAN_ELEMENT_THEORY":"SGP4","EPOCH":"2021-10-26T04:54:42.507360","MEAN_MOTION":15.064195,"ECCENTRICITY":0.000175,"INCLINATION":53.0535,"RA_OF_ASC_NODE":279.025,"ARG_OF_PERICENTER":75.3517,"MEAN_ANOMALY":284.7665,"EPHEMERIS_TYPE":0,"CLASSIFICATION_TYPE":"U","NORAD_CAT_ID":46166,"ELEMENT_SET_NO":999,"REV_AT_EPOCH":6625,"BSTAR":0.00036018,"MEAN_MOTION_DOT":0.0000509,"MEAN_MOTION_DDOT":0,"SEMIMAJOR_AXIS":6925.289,"PERIOD":95.591,"APOAPSIS":548.366,"PERIAPSIS":545.942,"OBJECT_TYPE":"PAYLOAD","RCS_SIZE":"LARGE","COUNTRY_CODE":"US","LAUNCH_DATE":"2020-08-18","SITE":"AFETR","DECAY_DATE":null,"DECAYED":0,"FILE":3184491,"GP_ID":188167177,"TLE_LINE0":"0 STARLINK-1615","TLE_LINE1":"1 46166U 20057BB  21299.20465865  .00005090  00000-0  36018-3 0  9991","TLE_LINE2":"2 46166  53.0535 279.0250 0001750  75.3517 284.7665 15.06419500 66250"},"height_km":565.6855714840185,"latitude":-50.26511635416286,"launch":"5ed981d91f30554030d45c2a","longitude":-107.87738936091534,"velocity_kms":7.577482162485888,"version":"v1.0","id":"5f487be7d76203000692e51a"},{"spaceTrack":{"CCSDS_OMM_VERS":"2.0","COMMENT":"GENERATED VIA SPACE-TRACK.ORG API","CREATION_DATE":"2021-10-26T14:16:11","ORIGINATOR":"18 SPCS","OBJECT_NAME":"STARLINK-1593","OBJECT_ID":"2020-057C","CENTER_NAME":"EARTH","REF_FRAME":"TEME","TIME_SYSTEM":"UTC","MEAN_ELEMENT_THEORY":"SGP4","EPOCH":"2021-10-26T05:42:28.442016","MEAN_MOTION":15.06403499,"ECCENTRICITY":0.0001527,"INCLINATION":53.0552,"RA_OF_ASC_NODE":278.8868,"ARG_OF_PERICENTER":72.6305,"MEAN_ANOMALY":287.4851,"EPHEMERIS_TYPE":0,"CLASSIFICATION_TYPE":"U","NORAD_CAT_ID":46119,"ELEMENT_SET_NO":999,"REV_AT_EPOCH":6625,"BSTAR":0.00012827,"MEAN_MOTION_DOT":0.0000163,"MEAN_MOTION_DDOT":0,"SEMIMAJOR_AXIS":6925.338,"PERIOD":95.592,"APOAPSIS":548.26,"PERIAPSIS":546.145,"OBJECT_TYPE":"PAYLOAD","RCS_SIZE":"LARGE","COUNTRY_CODE":"US","LAUNCH_DATE":"2020-08-18","SITE":"AFETR","DECAY_DATE":null,"DECAYED":0,"FILE":3184471,"GP_ID":188166591,"TLE_LINE0":"0 STARLINK-1593","TLE_LINE1":"1 46119U 20057C   21299.23782919  .00001630  00000-0  12827-3 0  9992","TLE_LINE2":"2 46119  53.0552 278.8868 0001527  72.6305 287.4851 15.06403499 66253"},"height_km":552.0230971169021,"latitude":50.2240790866647,"launch":"5ed981d91f30554030d45c2a","longitude":71.95666827022558,"velocity_kms":7.592472920662086,"version":"v1.0","id":"5f487be7d76203000692e518"},{"spaceTrack":{"CCSDS_OMM_VERS":"2.0","COMMENT":"GENERATED VIA SPACE-TRACK.ORG API","CREATION_DATE":"2021-10-26T06:26:11","ORIGINATOR":"18 SPCS","OBJECT_NAME":"STARLINK-1619","OBJECT_ID":"2020-057K","CENTER_NAME":"EARTH","REF_FRAME":"TEME","TIME_SYSTEM":"UTC","MEAN_ELEMENT_THEORY":"SGP4","EPOCH":"2021-10-26T00:24:00.605952","MEAN_MOTION":15.06407869,"ECCENTRICITY":0.0001586,"INCLINATION":53.0564,"RA_OF_ASC_NODE":279.7009,"ARG_OF_PERICENTER":71.9099,"MEAN_ANOMALY":288.2062,"EPHEMERIS_TYPE":0,"CLASSIFICATION_TYPE":"U","NORAD_CAT_ID":46126,"ELEMENT_SET_NO":999,"REV_AT_EPOCH":6622,"BSTAR":0.000072968,"MEAN_MOTION_DOT":0.00000806,"MEAN_MOTION_DDOT":0,"SEMIMAJOR_AXIS":6925.324,"PERIOD":95.592,"APOAPSIS":548.288,"PERIAPSIS":546.091,"OBJECT_TYPE":"PAYLOAD","RCS_SIZE":"LARGE","COUNTRY_CODE":"US","LAUNCH_DATE":"2020-08-18","SITE":"AFETR","DECAY_DATE":null,"DECAYED":0,"FILE":3183886,"GP_ID":188154301,"TLE_LINE0":"0 STARLINK-1619","TLE_LINE1":"1 46126U 20057K   21299.01667368  .00000806  00000-0  72968-4 0  9993","TLE_LINE2":"2 46126  53.0564 279.7009 0001586  71.9099 288.2062 15.06407869 66223"},"height_km":550.6909694984206,"latitude":-11.039661928008567,"launch":"5ed981d91f30554030d45c2a","longitude":-163.78825077562638,"velocity_kms":7.586745320650862,"version":"v1.0","id":"5f487be7d76203000692e51c"},{"spaceTrack":{"CCSDS_OMM_VERS":"2.0","COMMENT":"GENERATED VIA SPACE-TRACK.ORG API","CREATION_DATE":"2021-10-26T14:16:11","ORIGINATOR":"18 SPCS","OBJECT_NAME":"STARLINK-1603","OBJECT_ID":"2020-057AX","CENTER_NAME":"EARTH","REF_FRAME":"TEME","TIME_SYSTEM":"UTC","MEAN_ELEMENT_THEORY":"SGP4","EPOCH":"2021-10-26T05:23:53.431872","MEAN_MOTION":15.06408516,"ECCENTRICITY":0.0001893,"INCLINATION":53.0536,"RA_OF_ASC_NODE":258.9361,"ARG_OF_PERICENTER":68.2893,"MEAN_ANOMALY":291.8298,"EPHEMERIS_TYPE":0,"CLASSIFICATION_TYPE":"U","NORAD_CAT_ID":46162,"ELEMENT_SET_NO":999,"REV_AT_EPOCH":6654,"BSTAR":0.000054674,"MEAN_MOTION_DOT":0.00000533,"MEAN_MOTION_DDOT":0,"SEMIMAJOR_AXIS":6925.322,"PERIOD":95.592,"APOAPSIS":548.498,"PERIAPSIS":545.876,"OBJECT_TYPE":"PAYLOAD","RCS_SIZE":"LARGE","COUNTRY_CODE":"US","LAUNCH_DATE":"2020-08-18","SITE":"AFETR","DECAY_DATE":null,"DECAYED":0,"FILE":3184478,"GP_ID":188166702,"TLE_LINE0":"0 STARLINK-1603","TLE_LINE1":"1 46162U 20057AX  21299.22492398  .00000533  00000-0  54674-4 0  9996","TLE_LINE2":"2 46162  53.0536 258.9361 0001893  68.2893 291.8298 15.06408516 66540"},"height_km":548.2605179352176,"latitude":28.35255565136062,"launch":"5ed981d91f30554030d45c2a","longitude":144.1903607867102,"velocity_kms":7.591854466980804,"version":"v1.0","id":"5f487be7d76203000692e51e"},{"spaceTrack":{"CCSDS_OMM_VERS":"2.0","COMMENT":"GENERATED VIA SPACE-TRACK.ORG API","CREATION_DATE":"2021-10-26T14:26:12","ORIGINATOR":"18 SPCS","OBJECT_NAME":"STARLINK-1635","OBJECT_ID":"2020-057BH","CENTER_NAME":"EARTH","REF_FRAME":"TEME","TIME_SYSTEM":"UTC","MEAN_ELEMENT_THEORY":"SGP4","EPOCH":"2021-10-26T05:02:38.718240","MEAN_MOTION":15.06430288,"ECCENTRICITY":0.0001585,"INCLINATION":53.0546,"RA_OF_ASC_NODE":259.0127,"ARG_OF_PERICENTER":65.959,"MEAN_ANOMALY":294.1565,"EPHEMERIS_TYPE":0,"CLASSIFICATION_TYPE":"U","NORAD_CAT_ID":46172,"ELEMENT_SET_NO":999,"REV_AT_EPOCH":6652,"BSTAR":-0.00024392,"MEAN_MOTION_DOT":-0.00003916,"MEAN_MOTION_DDOT":0,"SEMIMAJOR_AXIS":6925.256,"PERIOD":95.59,"APOAPSIS":548.218,"PERIAPSIS":546.023,"OBJECT_TYPE":"PAYLOAD","RCS_SIZE":"LARGE","COUNTRY_CODE":"US","LAUNCH_DATE":"2020-08-18","SITE":"AFETR","DECAY_DATE":null,"DECAYED":0,"FILE":3184505,"GP_ID":188167435,"TLE_LINE0":"0 STARLINK-1635","TLE_LINE1":"1 46172U 20057BH  21299.21017035 -.00003916  00000-0 -24392-3 0  9990","TLE_LINE2":"2 46172  53.0546 259.0127 0001585  65.9590 294.1565 15.06430288 66522"},"height_km":558.7287966064359,"latitude":-33.739654862456035,"launch":"5ed981d91f30554030d45c2a","longitude":-162.0229538567387,"velocity_kms":7.581428175551758,"version":"v1.0","id":"5f487be7d76203000692e536"},{"spaceTrack":{"CCSDS_OMM_VERS":"2.0","COMMENT":"GENERATED VIA SPACE-TRACK.ORG API","CREATION_DATE":"2021-10-26T06:26:11","ORIGINATOR":"18 SPCS","OBJECT_NAME":"STARLINK-1642","OBJECT_ID":"2020-057AP","CENTER_NAME":"EARTH","REF_FRAME":"TEME","TIME_SYSTEM":"UTC","MEAN_ELEMENT_THEORY":"SGP4","EPOCH":"2021-10-26T01:55:34.363776","MEAN_MOTION":15.06418129,"ECCENTRICITY":0.0001739,"INCLINATION":53.0539,"RA_OF_ASC_NODE":269.5919,"ARG_OF_PERICENTER":78.3632,"MEAN_ANOMALY":281.7552,"EPHEMERIS_TYPE":0,"CLASSIFICATION_TYPE":"U","NORAD_CAT_ID":46154,"ELEMENT_SET_NO":999,"REV_AT_EPOCH":6636,"BSTAR":0.0002606,"MEAN_MOTION_DOT":0.00003604,"MEAN_MOTION_DDOT":0,"SEMIMAJOR_AXIS":6925.293,"PERIOD":95.591,"APOAPSIS":548.362,"PERIAPSIS":545.954,"OBJECT_TYPE":"PAYLOAD","RCS_SIZE":"LARGE","COUNTRY_CODE":"US","LAUNCH_DATE":"2020-08-18","SITE":"AFETR","DECAY_DATE":null,"DECAYED":0,"FILE":3183904,"GP_ID":188155016,"TLE_LINE0":"0 STARLINK-1642","TLE_LINE1":"1 46154U 20057AP  21299.08025884  .00003604  00000-0  26060-3 0  9992","TLE_LINE2":"2 46154  53.0539 269.5919 0001739  78.3632 281.7552 15.06418129 66365"},"height_km":554.3478854565074,"latitude":-22.75000344782438,"launch":"5ed981d91f30554030d45c2a","longitude":-163.7227399253862,"velocity_kms":7.584176517978382,"version":"v1.0","id":"5f487be7d76203000692e534"},{"spaceTrack":{"CCSDS_OMM_VERS":"2.0","COMMENT":"GENERATED VIA SPACE-TRACK.ORG API","CREATION_DATE":"2021-10-26T14:16:11","ORIGINATOR":"18 SPCS","OBJECT_NAME":"STARLINK-1610","OBJECT_ID":"2020-057AY","CENTER_NAME":"EARTH","REF_FRAME":"TEME","TIME_SYSTEM":"UTC","MEAN_ELEMENT_THEORY":"SGP4","EPOCH":"2021-10-26T03:45:41.449536","MEAN_MOTION":15.06407763,"ECCENTRICITY":0.0001885,"INCLINATION":53.055,"RA_OF_ASC_NODE":239.2546,"ARG_OF_PERICENTER":56.2088,"MEAN_ANOMALY":303.908,"EPHEMERIS_TYPE":0,"CLASSIFICATION_TYPE":"U","NORAD_CAT_ID":46163,"ELEMENT_SET_NO":999,"REV_AT_EPOCH":6680,"BSTAR":0.000002466,"MEAN_MOTION_DOT":-0.00000245,"MEAN_MOTION_DDOT":0,"SEMIMAJOR_AXIS":6925.325,"PERIOD":95.592,"APOAPSIS":548.495,"PERIAPSIS":545.884,"OBJECT_TYPE":"PAYLOAD","RCS_SIZE":"LARGE","COUNTRY_CODE":"US","LAUNCH_DATE":"2020-08-18","SITE":"AFETR","DECAY_DATE":null,"DECAYED":0,"FILE":3184481,"GP_ID":188166752,"TLE_LINE0":"0 STARLINK-1610","TLE_LINE1":"1 46163U 20057AY  21299.15672974 -.00000245  00000-0  24660-5 0  9993","TLE_LINE2":"2 46163  53.0550 239.2546 0001885  56.2088 303.9080 15.06407763 66804"},"height_km":547.8445461883011,"latitude":20.724198732502728,"launch":"5ed981d91f30554030d45c2a","longitude":131.56300273634224,"velocity_kms":7.591013868593546,"version":"v1.0","id":"5f487be7d76203000692e53f"}]